{
  "type": "FeatureCollection",
  "name": "parcelles_demo_sebha",
  "crs": { "type": "name", "properties": { "name": "urn:ogc:def:crs:OGC:1.3:CRS84" } },
  "features": [
    {
      "type": "Feature",
      "properties": { "name": "Pivot Nord", "crop": "ble", "soil": "sableux", "shape": "pivot", "area_ha": 50, "kc": 1.15 },
      "geometry": {
        "type": "Polygon",
        "coordinates": [[[14.4200,27.0350],[14.4230,27.0350],[14.4230,27.0375],[14.4200,27.0375],[14.4200,27.0350]]]
      }
    },
    {
      "type": "Feature",
      "properties": { "name": "Parcelle Est", "crop": "olivier", "soil": "sablo-limoneux", "shape": "polygon", "area_ha": 12.4 },
      "geometry": {
        "type": "Polygon",
        "coordinates": [[[14.4260,27.0330],[14.4300,27.0332],[14.4298,27.0360],[14.4258,27.0358],[14.4260,27.0330]]]
      }
    }
  ]
}
