{
  "type": "FeatureCollection",
  "name": "parcelle_1",
  "crs": {
    "type": "name",
    "properties": {
      "name": "urn:ogc:def:crs:OGC:1.3:CRS84"
    }
  },
  "features": [
    {
      "type": "Feature",
      "geometry": {
        "type": "Polygon",
        "coordinates": [
          [
            [
              9.81409549713135,
              33.71900778271566
            ],
            [
              9.815983772277832,
              33.717865512838074
            ],
            [
              9.81632709503174,
              33.716223473262964
            ],
            [
              9.817786216735842,
              33.7147955872356
            ],
            [
              9.818472862243652,
              33.713510469508314
            ],
            [
              9.819760322570803,
              33.71229672954974
            ],
            [
              9.820790290832521,
              33.71094017635294
            ],
            [
              9.82182025909424,
              33.70865540674095
            ],
            [
              9.822249412536623,
              33.70629917441588
            ],
            [
              9.821991920471193,
              33.704942526481936
            ],
            [
              9.821991920471193,
              33.70315743076522
            ],
            [
              9.822678565979006,
              33.70087245411673
            ],
            [
              9.823622703552248,
              33.69851600829249
            ],
            [
              9.824738502502443,
              33.69658795908963
            ],
            [
              9.828000068664553,
              33.69373151037321
            ],
            [
              9.830231666564943,
              33.69180335381068
            ],
            [
              9.831004142761232,
              33.6888039131679
            ],
            [
              9.832119941711428,
              33.687018482133674
            ],
            [
              9.83452320098877,
              33.685875786808026
            ],
            [
              9.83632564544678,
              33.684233135663696
            ],
            [
              9.838986396789553,
              33.681590544044816
            ],
            [
              9.834179878234865,
              33.67916214499285
            ],
            [
              9.831948280334473,
              33.67830504659826
            ],
            [
              9.828944206237795,
              33.684090294950295
            ],
            [
              9.828000068664553,
              33.68359035058424
            ],
            [
              9.82679843902588,
              33.68744698896434
            ],
            [
              9.82533931732178,
              33.68873249663864
            ],
            [
              9.821476936340334,
              33.6895180751968
            ],
            [
              9.817357063293459,
              33.69073213702673
            ],
            [
              9.815382957458498,
              33.691303454306464
            ],
            [
              9.814953804016115,
              33.69723064696454
            ],
            [
              9.813666343688967,
              33.71001199602905
            ],
            [
              9.804654121398928,
              33.70772720172341
            ],
            [
              9.802765846252441,
              33.70908380567328
            ],
            [
              9.80233669281006,
              33.711011574423864
            ],
            [
              9.812893867492678,
              33.71508116634075
            ],
            [
              9.813752174377443,
              33.719150565381746
            ],
            [
              9.81409549713135,
              33.71900778271566
            ]
          ]
        ]
      },
      "properties": {
        "nom": "parcelle_1",
        "type": "polygone",
        "surface_ha": 369.511,
        "rayon_m": null,
        "centre_lon": 9.821836,
        "centre_lat": 33.69943,
        "date_image": null,
        "indice": "NDVI",
        "idx_moyenne": null,
        "idx_min": null,
        "idx_max": null,
        "source": "AgriMap · Sentinel-2 L2A · Copernicus",
        "export_le": "2026-09-04T11:41:25"
      }
    }
  ]
}